*******************************************************************************
Ephemeris / WWW_USER Mon Mar 24 07:32:44 2025 Pasadena, USA      / Horizons    
*******************************************************************************
Target body name: (2018 RC)                       {source: JPL#21}
Center body name: Earth (399)                     {source: DE441}
Center-site name: Mauna Kea
*******************************************************************************
Start time      : A.D. 2018-Sep-14 04:35:00.0000 UT      
Stop  time      : A.D. 2018-Sep-14 16:00:00.0000 UT      
Step-size       : 1 minutes
*******************************************************************************
Target pole/equ : undefined
Target radii    : undefined                                                    
Center geodetic : 204.5278, 19.8260847, 4.21024   {E-lon(deg),Lat(deg),Alt(km)}
Center cylindric: 204.5278, 6006.35451, 2151.0229 {E-lon(deg),Dxy(km),Dz(km)}
Center pole/equ : ITRF93                          {East-longitude positive}
Center radii    : 6378.137, 6378.137, 6356.752 km {Equator_a, b, pole_c}       
Target primary  : Sun
Vis. interferer : MOON (R_eq= 1737.400) km        {source: DE441}
Rel. light bend : Sun                             {source: DE441}
Rel. lght bnd GM: 1.3271E+11 km^3/s^2                                          
Small-body perts: Yes                             {source: SB441-N16}
Atmos refraction: NO (AIRLESS)
RA format       : HMS
Time format     : CAL 
Calendar mode   : Mixed Julian/Gregorian
RTS-only print  : NO       
EOP file        : eop.250321.p250617                                           
EOP coverage    : DATA-BASED 1962-JAN-20 TO 2025-MAR-21. PREDICTS-> 2025-JUN-16
Units conversion: 1 au= 149597870.700 km, c= 299792.458 km/s, 1 day= 86400.0 s 
Table cut-offs 1: Elevation (-90.0deg=NO ),Airmass (>38.000=NO), Daylight (YES)
Table cut-offs 2: Solar elongation (  0.0,180.0=NO ),Local Hour Angle( 0.0=NO )
Table cut-offs 3: RA/DEC angular rate (     0.0=NO )                           
*******************************************************************************
Initial IAU76/J2000 heliocentric ecliptic osculating elements (au, days, deg.):
  EPOCH=  2458369.5 ! 2018-Sep-08.00 (TDB)         Residual RMS= .84866        
   EC= .2426621660028976   QR= .647471518312811    TP= 2458473.8617576878      
   OM= 346.8893436915528   W=  145.8737085184167   IN= 1.612045057594462       
  Equivalent ICRF heliocentric cartesian coordinates (au, au/d):
   X= 9.781363708094483E-01  Y=-2.377942828764822E-01  Z=-1.040448782093900E-01
  VX= 1.501011538102481E-03 VY= 1.393070215815854E-02 VZ= 6.509326736836346E-03
Asteroid physical parameters (km, seconds, rotational period in hours):        
   GM= n.a.                RAD= n.a.               ROTPER= .16548              
   H= 24.93                G= .150                 B-V= n.a.                   
                           ALBEDO= n.a.            STYP= n.a.                  
*******************************************************************************
 Date__(UT)__HR:MN     R.A._________(ICRF)_________DEC
******************************************************
$$SOE
 2018-Sep-14 12:47     13 37 30.788018 -00 57 24.05066
 2018-Sep-14 12:48     13 37 30.767629 -00 57 22.50860
 2018-Sep-14 12:49     13 37 30.747175 -00 57 20.96714
 2018-Sep-14 12:50     13 37 30.726654 -00 57 19.42628
 2018-Sep-14 12:51     13 37 30.706063 -00 57 17.88602
 2018-Sep-14 12:52     13 37 30.685398 -00 57 16.34636
 2018-Sep-14 12:53     13 37 30.664656 -00 57 14.80729
 2018-Sep-14 12:54     13 37 30.643835 -00 57 13.26883
 2018-Sep-14 12:55     13 37 30.622931 -00 57 11.73095
 2018-Sep-14 12:56     13 37 30.601941 -00 57 10.19368
 2018-Sep-14 12:57     13 37 30.580863 -00 57 08.65700
 2018-Sep-14 12:58     13 37 30.559692 -00 57 07.12091
 2018-Sep-14 12:59     13 37 30.538427 -00 57 05.58542
 2018-Sep-14 13:00     13 37 30.517064 -00 57 04.05052
 2018-Sep-14 13:01     13 37 30.495599 -00 57 02.51621
 2018-Sep-14 13:02     13 37 30.474030 -00 57 00.98250
 2018-Sep-14 13:03     13 37 30.452355 -00 56 59.44938
 2018-Sep-14 13:04     13 37 30.430569 -00 56 57.91684
 2018-Sep-14 13:05     13 37 30.408670 -00 56 56.38490
 2018-Sep-14 13:06     13 37 30.386654 -00 56 54.85355
 2018-Sep-14 13:07     13 37 30.364519 -00 56 53.32278
 2018-Sep-14 13:08     13 37 30.342262 -00 56 51.79261
 2018-Sep-14 13:09     13 37 30.319880 -00 56 50.26302
 2018-Sep-14 13:10     13 37 30.297369 -00 56 48.73402
 2018-Sep-14 13:11     13 37 30.274727 -00 56 47.20560
 2018-Sep-14 13:12     13 37 30.251950 -00 56 45.67777
 2018-Sep-14 13:13     13 37 30.229037 -00 56 44.15053
 2018-Sep-14 13:14     13 37 30.205982 -00 56 42.62387
 2018-Sep-14 13:15     13 37 30.182785 -00 56 41.09779
 2018-Sep-14 13:16     13 37 30.159441 -00 56 39.57229
 2018-Sep-14 13:17     13 37 30.135947 -00 56 38.04738
 2018-Sep-14 13:18     13 37 30.112302 -00 56 36.52305
 2018-Sep-14 13:19     13 37 30.088501 -00 56 34.99930
 2018-Sep-14 13:20     13 37 30.064541 -00 56 33.47613
 2018-Sep-14 13:21     13 37 30.040421 -00 56 31.95354
 2018-Sep-14 13:22     13 37 30.016136 -00 56 30.43152
 2018-Sep-14 13:23     13 37 29.991684 -00 56 28.91009
 2018-Sep-14 13:24     13 37 29.967062 -00 56 27.38923
 2018-Sep-14 13:25     13 37 29.942267 -00 56 25.86895
 2018-Sep-14 13:26     13 37 29.917296 -00 56 24.34925
 2018-Sep-14 13:27     13 37 29.892146 -00 56 22.83012
 2018-Sep-14 13:28     13 37 29.866814 -00 56 21.31156
 2018-Sep-14 13:29     13 37 29.841297 -00 56 19.79358
 2018-Sep-14 13:30     13 37 29.815592 -00 56 18.27617
 2018-Sep-14 13:31     13 37 29.789697 -00 56 16.75933
 2018-Sep-14 13:32     13 37 29.763608 -00 56 15.24307
 2018-Sep-14 13:33     13 37 29.737323 -00 56 13.72738
 2018-Sep-14 13:34     13 37 29.710838 -00 56 12.21225
 2018-Sep-14 13:35     13 37 29.684151 -00 56 10.69770
 2018-Sep-14 13:36     13 37 29.657259 -00 56 09.18372
 2018-Sep-14 13:37     13 37 29.630159 -00 56 07.67030
 2018-Sep-14 13:38     13 37 29.602848 -00 56 06.15745
 2018-Sep-14 13:39     13 37 29.575323 -00 56 04.64517
 2018-Sep-14 13:40     13 37 29.547581 -00 56 03.13345
 2018-Sep-14 13:41     13 37 29.519620 -00 56 01.62230
 2018-Sep-14 13:42     13 37 29.491436 -00 56 00.11171
 2018-Sep-14 13:43     13 37 29.463027 -00 55 58.60168
 2018-Sep-14 13:44     13 37 29.434390 -00 55 57.09222
 2018-Sep-14 13:45     13 37 29.405522 -00 55 55.58332
 2018-Sep-14 13:46     13 37 29.376420 -00 55 54.07499
 2018-Sep-14 13:47     13 37 29.347081 -00 55 52.56721
 2018-Sep-14 13:48     13 37 29.317503 -00 55 51.05999
 2018-Sep-14 13:49     13 37 29.287683 -00 55 49.55333
 2018-Sep-14 13:50     13 37 29.257618 -00 55 48.04723
 2018-Sep-14 13:51     13 37 29.227305 -00 55 46.54169
 2018-Sep-14 13:52     13 37 29.196741 -00 55 45.03670
 2018-Sep-14 13:53     13 37 29.165923 -00 55 43.53227
 2018-Sep-14 13:54     13 37 29.134850 -00 55 42.02840
 2018-Sep-14 13:55     13 37 29.103517 -00 55 40.52508
 2018-Sep-14 13:56     13 37 29.071923 -00 55 39.02231
 2018-Sep-14 13:57     13 37 29.040064 -00 55 37.52010
 2018-Sep-14 13:58     13 37 29.007937 -00 55 36.01844
 2018-Sep-14 13:59     13 37 28.975541 -00 55 34.51733
 2018-Sep-14 14:00     13 37 28.942871 -00 55 33.01677
 2018-Sep-14 14:01     13 37 28.909926 -00 55 31.51676
 2018-Sep-14 14:02     13 37 28.876703 -00 55 30.01730
 2018-Sep-14 14:03     13 37 28.843199 -00 55 28.51839
 2018-Sep-14 14:04     13 37 28.809411 -00 55 27.02002
 2018-Sep-14 14:05     13 37 28.775336 -00 55 25.52220
 2018-Sep-14 14:06     13 37 28.740972 -00 55 24.02493
 2018-Sep-14 14:07     13 37 28.706317 -00 55 22.52820
 2018-Sep-14 14:08     13 37 28.671367 -00 55 21.03202
 2018-Sep-14 14:09     13 37 28.636119 -00 55 19.53638
 2018-Sep-14 14:10     13 37 28.600572 -00 55 18.04128
 2018-Sep-14 14:11     13 37 28.564722 -00 55 16.54673
 2018-Sep-14 14:12     13 37 28.528566 -00 55 15.05271
 2018-Sep-14 14:13     13 37 28.492103 -00 55 13.55924
 2018-Sep-14 14:14     13 37 28.455329 -00 55 12.06630
 2018-Sep-14 14:15     13 37 28.418242 -00 55 10.57391
 2018-Sep-14 14:16     13 37 28.380839 -00 55 09.08205
 2018-Sep-14 14:17     13 37 28.343118 -00 55 07.59073
 2018-Sep-14 14:18     13 37 28.305075 -00 55 06.09994
 2018-Sep-14 14:19     13 37 28.266709 -00 55 04.60969
 2018-Sep-14 14:20     13 37 28.228017 -00 55 03.11998
 2018-Sep-14 14:21     13 37 28.188995 -00 55 01.63080
 2018-Sep-14 14:22     13 37 28.149642 -00 55 00.14215
 2018-Sep-14 14:23     13 37 28.109955 -00 54 58.65403
 2018-Sep-14 14:24     13 37 28.069931 -00 54 57.16645
 2018-Sep-14 14:25     13 37 28.029569 -00 54 55.67939
 2018-Sep-14 14:26     13 37 27.988864 -00 54 54.19287
 2018-Sep-14 14:27     13 37 27.947815 -00 54 52.70687
 2018-Sep-14 14:28     13 37 27.906419 -00 54 51.22140
 2018-Sep-14 14:29     13 37 27.864673 -00 54 49.73646
 2018-Sep-14 14:30     13 37 27.822576 -00 54 48.25204
 2018-Sep-14 14:31     13 37 27.780124 -00 54 46.76815
 2018-Sep-14 14:32     13 37 27.737316 -00 54 45.28478
 2018-Sep-14 14:33     13 37 27.694148 -00 54 43.80194
 2018-Sep-14 14:34     13 37 27.650617 -00 54 42.31962
 2018-Sep-14 14:35     13 37 27.606723 -00 54 40.83782
 2018-Sep-14 14:36     13 37 27.562461 -00 54 39.35655
 2018-Sep-14 14:37     13 37 27.517831 -00 54 37.87579
 2018-Sep-14 14:38     13 37 27.472828 -00 54 36.39555
 2018-Sep-14 14:39     13 37 27.427451 -00 54 34.91583
 2018-Sep-14 14:40     13 37 27.381697 -00 54 33.43663
 2018-Sep-14 14:41     13 37 27.335564 -00 54 31.95795
 2018-Sep-14 14:42     13 37 27.289049 -00 54 30.47978
 2018-Sep-14 14:43     13 37 27.242151 -00 54 29.00213
 2018-Sep-14 14:44     13 37 27.194866 -00 54 27.52499
 2018-Sep-14 14:45     13 37 27.147192 -00 54 26.04836
 2018-Sep-14 14:46     13 37 27.099127 -00 54 24.57225
 2018-Sep-14 14:47     13 37 27.050668 -00 54 23.09665
 2018-Sep-14 14:48     13 37 27.001814 -00 54 21.62155
 2018-Sep-14 14:49     13 37 26.952561 -00 54 20.14697
